OBJECT_NAME,OBJECT_ID,EPOCH,MEAN_MOTION,ECCENTRICITY,INCLINATION,RA_OF_ASC_NODE,ARG_OF_PERICENTER,MEAN_ANOMALY,EPHEMERIS_TYPE,CLASSIFICATION_TYPE,NORAD_CAT_ID,ELEMENT_SET_NO,REV_AT_EPOCH,BSTAR,MEAN_MOTION_DOT,MEAN_MOTION_DDOT,SEMIMAJOR_AXIS,SATELLITE_TYPE
IRIDIUM 139,2017-061J,2024-12-31T18:52:38.479008,14.34220133,0.0001705,86.397,247.7469,86.1762,273.9628,0,U,42963,999,37853,0.00023576,6.8e-06,0.0,7155.7962279617,Iridium Next
PROMETHEUS 2-1,2016-067G,2025-01-01T00:24:11.695392,15.31633024,0.0009739,98.0906,197.7067,89.4729,270.7626,0,U,41854,999,44585,0.0020683,0.00063644,0.0,6849.076654471864,CubeSat
SNAP-3 JIMI,2015-058M,2024-12-31T20:41:52.176480,14.92817304,0.0167748,64.769,93.5714,246.9146,111.4209,0,U,40975,999,3447,0.0017478,0.00023812,0.0,6967.292888291544,CubeSat
IRIDIUM 148,2018-030G,2024-12-31T21:03:59.215680,14.34217652,0.0002044,86.3999,152.984,98.7943,261.3485,0,U,43255,999,35387,0.00012609,3.73e-06,0.0,7155.804480323906,Iridium Next
ALTAIR (RS65S),2024-199AW,2024-12-31T21:42:07.595712,15.24644622,0.0018636,97.3778,230.8202,45.8,314.4765,0,U,61779,999,5567,0.00077111,0.00019091,0.0,6869.989772801092,Amateur Radio
TIGRISAT,2014-033AK,2024-12-31T21:13:57.387936,14.81404342,0.0053387,97.712,161.6716,19.8727,340.455,0,U,40043,999,56670,0.00081612,6.493e-05,0.0,7003.031811766011,CubeSat
CANX-4,2014-034C,2024-12-31T15:27:25.939008,14.79437493,0.0012028,98.376,209.6642,281.8535,78.1326,0,U,40055,999,56573,0.00062925,4.647e-05,0.0,7009.237258549208,CubeSat
IRIDIUM 124,2017-039H,2024-12-31T09:12:18.954144,14.43285735,0.0002127,86.4522,153.1056,104.8827,255.261,0,U,42810,999,39826,0.00037161,1.27e-05,0.0,7125.7999948346205,Iridium Next
FOX-1A (AO-85),2015-058D,2025-01-01T01:54:13.544352,14.85715402,0.0182443,64.7767,127.208,244.7605,113.4498,0,U,40967,999,3435,0.0012524,0.00014613,0.0,6989.478247096988,CubeSat
ORBCOMM FM113,2015-081G,2024-12-31T20:46:34.498848,14.57660062,0.0001154,46.9997,265.6004,0.3053,359.7833,0,U,41185,999,48123,0.0008119,3.572e-05,0.0,7078.876541100518,Orbcomm
CORVUS BC4,2018-099K,2025-01-01T01:57:24.169536,15.0584322,0.0010443,97.4856,54.4393,37.1114,323.0833,0,U,43767,999,33213,0.00087524,0.00012672,0.0,6927.055534220498,CubeSat
ORBCOMM FM112,2015-081F,2024-12-31T21:19:06.540960,14.57659873,0.0001381,46.9978,265.1882,332.8113,27.2699,0,U,41184,999,48125,0.00081338,3.578e-05,0.0,7078.877152998012,Orbcomm
MOZHAYETS 4 (RS-22),2003-042A,2024-12-31T22:37:13.168128,14.71492364,0.0012096,98.3083,166.7797,150.7204,0.5026,0,U,27939,999,13721,0.00079312,4.876e-05,0.0,7034.444909844849,Amateur Radio
GRBALPHA,2021-022AD,2025-01-01T03:21:35.540352,15.45697971,0.0010713,97.4392,267.4165,132.5483,227.6672,0,U,47959,999,20775,0.0020857,0.00101987,0.0,6807.46499426965,CubeSat
BRITE-AUSTRIA,2013-009F,2024-12-31T14:04:40.293408,14.36131145,0.0010945,98.3817,188.7842,35.6986,324.493,0,U,39091,999,62059,0.0003262,9.08e-06,0.0,7149.446832423751,CubeSat
GLOBALSTAR M075,2010-054E,2024-12-31T22:06:47.384928,12.6227091,5.09e-05,51.9967,330.8247,57.776,337.6357,0,U,37192,999,65472,0.00017928,-7.2e-07,0.0,7791.722177030642,Globalstar
GLOBALSTAR M070,2007-048B,2025-01-01T03:51:41.516352,12.62309162,9.29e-05,51.9754,277.3321,66.4382,78.2341,0,U,32264,999,79355,0.00044219,-2.5e-07,0.0,7791.5647668541105,Globalstar
CUBEBUG-2 (LO-74),2013-066AA,2024-12-31T13:59:05.142624,14.8731204,0.0065123,97.8344,306.7065,348.9371,11.0409,0,U,39440,999,59763,0.0015499,0.00014506,0.0,6984.475188387251,CubeSat
SITRO-AIS 31,2024-039D,2025-01-01T02:16:59.752992,15.49969264,0.000829,97.4107,330.3848,210.2593,149.818,0,U,59054,999,4700,0.0018851,0.00106841,0.0,6794.952897329877,CubeSat
SITRO-AIS 35,2024-039F,2025-01-01T03:05:15.221760,15.50203349,0.0007933,97.4108,330.4996,209.9924,150.0874,0,U,59056,999,4700,0.0019905,0.00113841,0.0,6794.268842306414,CubeSat
UTMN 2 (RS27S),2023-091AP,2024-12-31T22:25:25.794912,15.16691279,0.0012189,97.5863,59.3925,140.2981,219.9147,0,U,57203,999,8345,0.0012132,0.00023797,0.0,6893.985753647115,Amateur Radio
SIT-2086,2024-199AF,2025-01-01T02:13:34.064832,15.27272105,0.0012653,97.3773,231.175,43.56,316.6636,0,U,61764,999,5255,0.0013779,0.00036969,0.0,6862.108199316622,Amateur Radio
SNAP-3 JIMI,2015-058M,2024-12-31T20:41:52.176480,14.92817304,0.0167748,64.769,93.5714,246.9146,111.4209,0,U,40975,999,3447,0.0017478,0.00023812,0.0,6967.292888291544,CubeSat
